[{"OBJECT_NAME":"STAR VIBE","OBJECT_ID":"2023-001A","EPOCH":"2026-03-09T23:09:15.855840","MEAN_MOTION":15.39777228,"ECCENTRICITY":0.00076018,"INCLINATION":97.3286,"RA_OF_ASC_NODE":133.1764,"ARG_OF_PERICENTER":111.0434,"MEAN_ANOMALY":249.1626,"EPHEMERIS_TYPE":0,"CLASSIFICATION_TYPE":"U","NORAD_CAT_ID":55009,"ELEMENT_SET_NO":999,"REV_AT_EPOCH":17694,"BSTAR":0.00044270913,"MEAN_MOTION_DOT":0.00017486,"MEAN_MOTION_DDOT":0},{"OBJECT_NAME":"JACKAL X-1L-002","OBJECT_ID":"2024-043AN","EPOCH":"2026-03-09T23:11:34.268640","MEAN_MOTION":15.42550186,"ECCENTRICITY":0.00077419,"INCLINATION":97.5416,"RA_OF_ASC_NODE":211.0971,"ARG_OF_PERICENTER":201.4891,"MEAN_ANOMALY":158.6032,"EPHEMERIS_TYPE":0,"CLASSIFICATION_TYPE":"U","NORAD_CAT_ID":59134,"ELEMENT_SET_NO":999,"REV_AT_EPOCH":11230,"BSTAR":0.00054451815,"MEAN_MOTION_DOT":0.00023615,"MEAN_MOTION_DDOT":0}]
